OBJECT_NAME,OBJECT_ID,EPOCH,MEAN_MOTION,ECCENTRICITY,INCLINATION,RA_OF_ASC_NODE,ARG_OF_PERICENTER,MEAN_ANOMALY,EPHEMERIS_TYPE,CLASSIFICATION_TYPE,NORAD_CAT_ID,ELEMENT_SET_NO,REV_AT_EPOCH,BSTAR,MEAN_MOTION_DOT,MEAN_MOTION_DDOT
INTELSAT 23 (IS-23),2012-057A,2026-07-07T01:21:10.850112,1.00275567,.0000405,0.0130,52.9192,98.8720,100.5402,0,U,38867,999,5015,0,-.27E-5,0
FM-6,2013-058A,2026-07-06T21:47:33.811008,1.00271504,.0002812,0.0450,67.8318,116.6951,310.9204,0,U,39360,999,4627,0,0,0
INTELSAT 30 (IS-30),2014-062A,2026-07-07T10:39:41.338944,1.00269478,.0001323,0.0158,44.8986,344.7095,320.6821,0,U,40271,999,699,0,-.135E-5,0
DIRECTV 14,2014-078B,2026-07-07T07:34:53.671008,1.00271459,.0000142,0.0109,41.1629,293.2333,325.3700,0,U,40333,999,4224,0,-.11E-5,0
DIRECTV 15,2015-026A,2026-07-07T08:25:57.165312,1.00270888,.0000236,0.0159,68.6128,274.1901,326.1380,0,U,40663,999,4066,0,-.87E-6,0
SKY MEXICO-1,2015-026B,2026-07-07T10:59:00.832128,1.00270719,.000248,0.0159,305.3444,182.1621,243.8790,0,U,40664,999,4065,0,-.219E-5,0
INTELSAT 34 (IS-34),2015-039A,2026-07-07T11:46:16.969152,1.00270271,.0000324,0.0117,334.9965,32.8049,38.7404,0,U,40874,999,3983,0,-.27E-5,0
INTELSAT 31 (IS-31),2016-035A,2026-07-06T06:29:56.251680,1.00270733,.00008295,0.0403,211.4121,55.4380,19.8435,0,U,41581,999,3687,0,-.136E-5,0
INTELSAT 36 (IS-36),2016-053A,2026-07-07T08:56:11.376096,1.00270143,.0002207,0.0094,10.4360,331.3169,146.1304,0,U,41747,999,3616,0,-.9E-7,0
INTELSAT 32E (IS-32E),2017-007B,2026-07-07T11:49:46.634304,1.00269617,.0000712,0.0168,339.8253,2.7489,77.1589,0,U,41945,999,3442,0,-.254E-5,0
INTELSAT 35E (IS-35E),2017-041A,2026-07-07T10:49:48.871776,1.00269726,.000164,0.0199,21.4408,86.1962,305.7495,0,U,42818,999,3301,0,0,0
INTELSAT 37E (IS-37E),2017-059A,2026-07-07T10:14:21.410016,1.00269797,.000253,0.0221,36.2109,78.7211,306.0583,0,U,42950,999,3226,0,0,0
AZERSPACE 2 (IS-38),2018-074A,2026-07-07T12:15:01.240992,1.00270975,.0001289,0.0162,18.5930,96.8944,38.8588,0,U,43632,999,2865,0,.152E-5,0
HORIZONS-3E,2018-074B,2026-07-06T21:26:28.334400,1.00269288,.000086,0.0376,227.4998,64.0191,123.9783,0,U,43633,999,2853,0,-.16E-6,0
AT&T T-16,2019-034A,2026-07-07T13:26:13.871328,1.00268832,.0000473,0.0143,66.5596,243.0389,76.6215,0,U,44333,999,2583,0,-.1E-5,0
INTELSAT 39 (IS-39),2019-049B,2026-07-07T08:54:19.056096,1.00274979,.0000504,0.0158,9.7580,307.4421,163.6784,0,U,44476,999,2533,0,.48E-6,0
GALAXY 30 (G-30),2020-056C,2026-07-06T18:19:48.355968,1.00270907,.0002186,0.0206,38.7570,67.2773,328.6685,0,U,46114,999,2148,0,.52E-6,0
GALAXY 33 (G-33),2022-128A,2026-07-07T11:24:11.586240,1.00273107,.0001779,0.0146,317.2581,149.6374,216.6030,0,U,54026,999,1394,0,.94E-6,0
GALAXY 34 (G-34),2022-128B,2026-07-06T16:36:07.829856,1.00275248,.0001829,0.0172,18.6774,102.5440,283.4893,0,U,54027,999,1410,0,0,0
GALAXY 31 (G-31),2022-153A,2026-07-07T11:27:41.251392,1.00272441,.0001301,0.0166,280.6740,186.2634,229.4308,0,U,54243,999,733,0,.28E-6,0
GALAXY 32 (G-32),2022-153B,2026-07-07T01:20:14.418816,1.00270818,.0001622,0.0098,22.5735,26.6946,164.8256,0,U,54244,999,1334,0,-.159E-5,0
GALAXY 35 (G-35),2022-170A,2026-07-07T11:35:32.997120,1.00271566,.0002063,0.0234,90.2539,19.3880,256.5962,0,U,54741,999,1309,0,-.147E-5,0
GALAXY 36 (G-36),2022-170B,2026-07-07T10:54:02.623392,1.00270935,.0002649,0.0240,132.4848,325.6227,261.8253,0,U,54742,999,1297,0,-.17E-5,0
GALAXY 37 (G-37),2023-112A,2026-07-07T11:12:40.025952,1.00272327,.0001841,0.0192,35.3490,78.2982,212.9573,0,U,57493,999,1074,0,.63E-6,0
