INTELSAT 23 (IS-23)     
1 38867U 12057A   26188.05637558 -.00000270  00000+0  00000+0 0  9999
2 38867   0.0130  52.9192 0000405  98.8720 100.5402  1.00275567 50155
FM-6                    
1 39360U 13058A   26187.90803022  .00000000  00000+0  00000+0 0  9994
2 39360   0.0450  67.8318 0002812 116.6951 310.9204  1.00271504 46275
INTELSAT 30 (IS-30)     
1 40271U 14062A   26188.44422846 -.00000135  00000+0  00000+0 0  9994
2 40271   0.0158  44.8986 0001323 344.7095 320.6821  1.00269478  6993
DIRECTV 14              
1 40333U 14078B   26188.31589897 -.00000110  00000+0  00000+0 0  9999
2 40333   0.0109  41.1629 0000142 293.2333 325.3700  1.00271459 42241
DIRECTV 15              
1 40663U 15026A   26188.35135608 -.00000087  00000+0  00000+0 0  9993
2 40663   0.0159  68.6128 0000236 274.1901 326.1380  1.00270888 40665
SKY MEXICO-1            
1 40664U 15026B   26188.45764852 -.00000219  00000+0  00000+0 0  9991
2 40664   0.0159 305.3444 0002480 182.1621 243.8790  1.00270719 40650
INTELSAT 34 (IS-34)     
1 40874U 15039A   26188.49047418 -.00000270  00000+0  00000+0 0  9991
2 40874   0.0117 334.9965 0000324  32.8049  38.7404  1.00270271 39837
INTELSAT 31 (IS-31)     
1 41581U 16035A   26187.27078995 -.00000136  00000+0  00000+0 0  9994
2 41581   0.0403 211.4121 0000829  55.4380  19.8435  1.00270733 36871
INTELSAT 36 (IS-36)     
1 41747U 16053A   26188.37235389 -.00000009  00000+0  00000+0 0  9991
2 41747   0.0094  10.4360 0002207 331.3169 146.1304  1.00270143 36162
INTELSAT 32E (IS-32E)   
1 41945U 17007B   26188.49290086 -.00000254  00000+0  00000+0 0  9991
2 41945   0.0168 339.8253 0000712   2.7489  77.1589  1.00269617 34425
INTELSAT 35E (IS-35E)   
1 42818U 17041A   26188.45126009  .00000000  00000+0  00000+0 0  9996
2 42818   0.0199  21.4408 0001640  86.1962 305.7495  1.00269726 33019
INTELSAT 37E (IS-37E)   
1 42950U 17059A   26188.42663669  .00000000  00000+0  00000+0 0  9997
2 42950   0.0221  36.2109 0002530  78.7211 306.0583  1.00269797 32263
AZERSPACE 2 (IS-38)     
1 43632U 18074A   26188.51043103  .00000152  00000+0  00000+0 0  9996
2 43632   0.0162  18.5930 0001289  96.8944  38.8588  1.00270975 28657
HORIZONS-3E             
1 43633U 18074B   26187.89338350 -.00000016  00000+0  00000+0 0  9998
2 43633   0.0376 227.4998 0000860  64.0191 123.9783  1.00269288 28530
AT&T T-16               
1 44333U 19034A   26188.55988277 -.00000100  00000+0  00000+0 0  9990
2 44333   0.0143  66.5596 0000473 243.0389  76.6215  1.00268832 25832
INTELSAT 39 (IS-39)     
1 44476U 19049B   26188.37105389  .00000048  00000+0  00000+0 0  9999
2 44476   0.0158   9.7580 0000504 307.4421 163.6784  1.00274979 25337
GALAXY 30 (G-30)        
1 46114U 20056C   26187.76375412  .00000052  00000+0  00000+0 0  9993
2 46114   0.0206  38.7570 0002186  67.2773 328.6685  1.00270907 21484
GALAXY 33 (G-33)        
1 54026U 22128A   26188.47513410  .00000094  00000+0  00000+0 0  9993
2 54026   0.0146 317.2581 0001779 149.6374 216.6030  1.00273107 13941
GALAXY 34 (G-34)        
1 54027U 22128B   26187.69175729  .00000000  00000+0  00000+0 0  9991
2 54027   0.0172  18.6774 0001829 102.5440 283.4893  1.00275248 14101
GALAXY 31 (G-31)        
1 54243U 22153A   26188.47756078  .00000028  00000+0  00000+0 0  9998
2 54243   0.0166 280.6740 0001301 186.2634 229.4308  1.00272441  7337
GALAXY 32 (G-32)        
1 54244U 22153B   26188.05572244 -.00000159  00000+0  00000+0 0  9990
2 54244   0.0098  22.5735 0001622  26.6946 164.8256  1.00270818 13346
GALAXY 35 (G-35)        
1 54741U 22170A   26188.48302080 -.00000147  00000+0  00000+0 0  9994
2 54741   0.0234  90.2539 0002063  19.3880 256.5962  1.00271566 13096
GALAXY 36 (G-36)        
1 54742U 22170B   26188.45419703 -.00000170  00000+0  00000+0 0  9999
2 54742   0.0240 132.4848 0002649 325.6227 261.8253  1.00270935 12971
GALAXY 37 (G-37)        
1 57493U 23112A   26188.46712993  .00000063  00000+0  00000+0 0  9990
2 57493   0.0192  35.3490 0001841  78.2982 212.9573  1.00272327 10741
